[{"OBJECT_NAME":"STARLINK-33731","OBJECT_ID":"2025-070R","EPOCH":"2026-03-09T19:58:40.122048","MEAN_MOTION":15.2756587,"ECCENTRICITY":0.00016785,"INCLINATION":43.001,"RA_OF_ASC_NODE":259.3917,"ARG_OF_PERICENTER":276.4294,"MEAN_ANOMALY":83.6366,"EPHEMERIS_TYPE":0,"CLASSIFICATION_TYPE":"U","NORAD_CAT_ID":63475,"ELEMENT_SET_NO":999,"REV_AT_EPOCH":5299,"BSTAR":0.00092515326,"MEAN_MOTION_DOT":0.00025273,"MEAN_MOTION_DDOT":0},{"OBJECT_NAME":"ELECTRON KICK STAGE R\/B","OBJECT_ID":"2022-147B","EPOCH":"2026-03-09T22:28:20.187264","MEAN_MOTION":15.28920172,"ECCENTRICITY":0.00095089,"INCLINATION":97.642,"RA_OF_ASC_NODE":85.1135,"ARG_OF_PERICENTER":110.4683,"MEAN_ANOMALY":249.7578,"EPHEMERIS_TYPE":0,"CLASSIFICATION_TYPE":"U","NORAD_CAT_ID":54228,"ELEMENT_SET_NO":999,"REV_AT_EPOCH":18390,"BSTAR":0.00083201931,"MEAN_MOTION_DOT":0.00023374,"MEAN_MOTION_DDOT":0}]
